ONEWEB-0369             
1 49295U 21090S   23325.41842379  .00000117  00000+0  25994-3 0  9994
2 49295  87.9169 131.8259 0001457  85.9957 274.1343 13.19723779103883
ONEWEB-0370             
1 49296U 21090T   23325.09083139  .00000080  00000+0  16411-3 0  9993
2 49296  87.9167 101.3873 0001607  97.2761 262.8555 13.20770362107203
ONEWEB-0371             
1 49297U 21090U   23324.97143516  .00000070  00000+0  14317-3 0  9998
2 49297  87.9168 131.9042 0001454  90.6096 269.5203 13.19726198103868
ONEWEB-0372             
1 49298U 21090V   23325.08029973 -.00000016  00000+0 -70278-4 0  9993
2 49298  87.9179 101.3924 0001231 106.5223 253.6046 13.20770626107177
ONEWEB-0373             
1 49299U 21090W   23324.88038590  .00000071  00000+0  14303-3 0  9991
2 49299  87.9243 101.4305 0001641  82.2534 277.8786 13.20772882107034
ONEWEB-0374             
1 49300U 21090X   23324.90137870 -.00000017  00000+0 -79692-4 0  9993
2 49300  87.8943 116.6771 0001454  89.2114 270.9182 13.14505940104168
ONEWEB-0375             
1 49301U 21090Y   23324.86777195  .00000028  00000+0  36368-4 0  9992
2 49301  87.9164 101.4327 0002241  89.4418 270.6972 13.20773253106536
ONEWEB-0376             
1 49302U 21090Z   23325.42475463  .00000141  00000+0  32078-3 0  9998
2 49302  87.9171 131.8321 0001203  87.6559 272.4711 13.19726531103914
